CCSDS_OMM_VERS = 2.0
CREATION_DATE  = 
ORIGINATOR     = 

OBJECT_NAME    = SL-16 R/B
OBJECT_ID      = 1998-043G
CENTER_NAME    = EARTH
REF_FRAME      = TEME
TIME_SYSTEM    = UTC
MEAN_ELEMENT_THEORY = SGP/SGP4

EPOCH          = 2026-01-08T09:22:38.354016
MEAN_MOTION    = 14.26033241
ECCENTRICITY   = .0009687
INCLINATION    = 98.8162
RA_OF_ASC_NODE = 321.3630
ARG_OF_PERICENTER = 183.3486
MEAN_ANOMALY   = 176.7630

EPHEMERIS_TYPE = 0
CLASSIFICATION_TYPE = U
NORAD_CAT_ID   = 25400
ELEMENT_SET_NO = 999
REV_AT_EPOCH   = 43039
BSTAR          = .57644E-4
MEAN_MOTION_DOT = .92E-6
MEAN_MOTION_DDOT = 0

CCSDS_OMM_VERS = 2.0
CREATION_DATE  = 
ORIGINATOR     = 

OBJECT_NAME    = SL-16 R/B
OBJECT_ID      = 1998-045B
CENTER_NAME    = EARTH
REF_FRAME      = TEME
TIME_SYSTEM    = UTC
MEAN_ELEMENT_THEORY = SGP/SGP4

EPOCH          = 2026-01-08T06:03:23.476320
MEAN_MOTION    = 14.16180775
ECCENTRICITY   = .0005384
INCLINATION    = 71.0124
RA_OF_ASC_NODE = 308.6712
ARG_OF_PERICENTER = 130.4771
MEAN_ANOMALY   = 229.6823

EPHEMERIS_TYPE = 0
CLASSIFICATION_TYPE = U
NORAD_CAT_ID   = 25407
ELEMENT_SET_NO = 999
REV_AT_EPOCH   = 41854
BSTAR          = -.65302E-4
MEAN_MOTION_DOT = -.177E-5
MEAN_MOTION_DDOT = 0

CCSDS_OMM_VERS = 2.0
CREATION_DATE  = 
ORIGINATOR     = 

OBJECT_NAME    = ISS (ZARYA)
OBJECT_ID      = 1998-067A
CENTER_NAME    = EARTH
REF_FRAME      = TEME
TIME_SYSTEM    = UTC
MEAN_ELEMENT_THEORY = SGP/SGP4

EPOCH          = 2026-01-08T10:27:10.388160
MEAN_MOTION    = 15.49173630
ECCENTRICITY   = .0007632
INCLINATION    = 51.6332
RA_OF_ASC_NODE = 10.3044
ARG_OF_PERICENTER = 354.9386
MEAN_ANOMALY   = 5.1525

EPHEMERIS_TYPE = 0
CLASSIFICATION_TYPE = U
NORAD_CAT_ID   = 25544
ELEMENT_SET_NO = 999
REV_AT_EPOCH   = 54699
BSTAR          = .17695E-3
MEAN_MOTION_DOT = .9375E-4
MEAN_MOTION_DDOT = 0

CCSDS_OMM_VERS = 2.0
CREATION_DATE  = 
ORIGINATOR     = 

OBJECT_NAME    = CZ-4B R/B
OBJECT_ID      = 1999-025C
CENTER_NAME    = EARTH
REF_FRAME      = TEME
TIME_SYSTEM    = UTC
MEAN_ELEMENT_THEORY = SGP/SGP4

EPOCH          = 2026-01-08T09:46:13.162656
MEAN_MOTION    = 14.18251140
ECCENTRICITY   = .0037566
INCLINATION    = 98.6731
RA_OF_ASC_NODE = 54.0857
ARG_OF_PERICENTER = 156.9324
MEAN_ANOMALY   = 214.5675

EPHEMERIS_TYPE = 0
CLASSIFICATION_TYPE = U
NORAD_CAT_ID   = 25732
ELEMENT_SET_NO = 999
REV_AT_EPOCH   = 37962
BSTAR          = .47473E-4
MEAN_MOTION_DOT = .55E-6
MEAN_MOTION_DDOT = 0

CCSDS_OMM_VERS = 2.0
CREATION_DATE  = 
ORIGINATOR     = 

OBJECT_NAME    = OKEAN-O
OBJECT_ID      = 1999-039A
CENTER_NAME    = EARTH
REF_FRAME      = TEME
TIME_SYSTEM    = UTC
MEAN_ELEMENT_THEORY = SGP/SGP4

EPOCH          = 2026-01-08T10:10:35.852448
MEAN_MOTION    = 14.80217337
ECCENTRICITY   = .0001521
INCLINATION    = 97.9562
RA_OF_ASC_NODE = 68.8903
ARG_OF_PERICENTER = 111.7860
MEAN_ANOMALY   = 248.3514

EPHEMERIS_TYPE = 0
CLASSIFICATION_TYPE = U
NORAD_CAT_ID   = 25860
ELEMENT_SET_NO = 999
REV_AT_EPOCH   = 42547
BSTAR          = .12921E-3
MEAN_MOTION_DOT = .93E-5
MEAN_MOTION_DDOT = 0

CCSDS_OMM_VERS = 2.0
CREATION_DATE  = 
ORIGINATOR     = 

OBJECT_NAME    = SL-16 R/B
OBJECT_ID      = 1999-039B
CENTER_NAME    = EARTH
REF_FRAME      = TEME
TIME_SYSTEM    = UTC
MEAN_ELEMENT_THEORY = SGP/SGP4

EPOCH          = 2026-01-08T09:26:42.126432
MEAN_MOTION    = 14.81633729
ECCENTRICITY   = .0016167
INCLINATION    = 98.0086
RA_OF_ASC_NODE = 67.5416
ARG_OF_PERICENTER = 93.0687
MEAN_ANOMALY   = 267.2375

EPHEMERIS_TYPE = 0
CLASSIFICATION_TYPE = U
NORAD_CAT_ID   = 25861
ELEMENT_SET_NO = 999
REV_AT_EPOCH   = 42793
BSTAR          = .10152E-3
MEAN_MOTION_DOT = .746E-5
MEAN_MOTION_DDOT = 0

CCSDS_OMM_VERS = 2.0
CREATION_DATE  = 
ORIGINATOR     = 

OBJECT_NAME    = DELTA 2 R/B
OBJECT_ID      = 1999-041E
CENTER_NAME    = EARTH
REF_FRAME      = TEME
TIME_SYSTEM    = UTC
MEAN_ELEMENT_THEORY = SGP/SGP4

EPOCH          = 2026-01-08T11:28:39.039168
MEAN_MOTION    = 14.11514284
ECCENTRICITY   = .0503909
INCLINATION    = 51.7599
RA_OF_ASC_NODE = 181.7014
ARG_OF_PERICENTER = 170.5771
MEAN_ANOMALY   = 190.5060

EPHEMERIS_TYPE = 0
CLASSIFICATION_TYPE = U
NORAD_CAT_ID   = 25876
ELEMENT_SET_NO = 999
REV_AT_EPOCH   = 35452
BSTAR          = .4953E-3
MEAN_MOTION_DOT = .2846E-4
MEAN_MOTION_DDOT = 0

CCSDS_OMM_VERS = 2.0
CREATION_DATE  = 
ORIGINATOR     = 

OBJECT_NAME    = HELIOS 1B
OBJECT_ID      = 1999-064A
CENTER_NAME    = EARTH
REF_FRAME      = TEME
TIME_SYSTEM    = UTC
MEAN_ELEMENT_THEORY = SGP/SGP4

EPOCH          = 2026-01-08T10:39:51.441696
MEAN_MOTION    = 14.87416471
ECCENTRICITY   = .0000313
INCLINATION    = 98.1745
RA_OF_ASC_NODE = 268.9034
ARG_OF_PERICENTER = 95.4992
MEAN_ANOMALY   = 264.6259

EPHEMERIS_TYPE = 0
CLASSIFICATION_TYPE = U
NORAD_CAT_ID   = 25977
ELEMENT_SET_NO = 999
REV_AT_EPOCH   = 67630
BSTAR          = .24977E-3
MEAN_MOTION_DOT = .2201E-4
MEAN_MOTION_DDOT = 0

CCSDS_OMM_VERS = 2.0
CREATION_DATE  = 
ORIGINATOR     = 

OBJECT_NAME    = TERRA
OBJECT_ID      = 1999-068A
CENTER_NAME    = EARTH
REF_FRAME      = TEME
TIME_SYSTEM    = UTC
MEAN_ELEMENT_THEORY = SGP/SGP4

EPOCH          = 2026-01-08T10:59:17.597184
MEAN_MOTION    = 14.60938438
ECCENTRICITY   = .0002788
INCLINATION    = 97.9710
RA_OF_ASC_NODE = 64.1567
ARG_OF_PERICENTER = 39.3727
MEAN_ANOMALY   = 86.0120

EPHEMERIS_TYPE = 0
CLASSIFICATION_TYPE = U
NORAD_CAT_ID   = 25994
ELEMENT_SET_NO = 999
REV_AT_EPOCH   = 38628
BSTAR          = .12297E-3
MEAN_MOTION_DOT = .558E-5
MEAN_MOTION_DDOT = 0

CCSDS_OMM_VERS = 2.0
CREATION_DATE  = 
ORIGINATOR     = 

OBJECT_NAME    = SL-16 R/B
OBJECT_ID      = 2000-006B
CENTER_NAME    = EARTH
REF_FRAME      = TEME
TIME_SYSTEM    = UTC
MEAN_ELEMENT_THEORY = SGP/SGP4

EPOCH          = 2026-01-08T07:44:40.733088
MEAN_MOTION    = 14.15815842
ECCENTRICITY   = .0018977
INCLINATION    = 71.0013
RA_OF_ASC_NODE = 224.7649
ARG_OF_PERICENTER = 273.1147
MEAN_ANOMALY   = 86.7804

EPHEMERIS_TYPE = 0
CLASSIFICATION_TYPE = U
NORAD_CAT_ID   = 26070
ELEMENT_SET_NO = 999
REV_AT_EPOCH   = 34001
BSTAR          = -.17135E-4
MEAN_MOTION_DOT = -.82E-6
MEAN_MOTION_DDOT = 0

CCSDS_OMM_VERS = 2.0
CREATION_DATE  = 
ORIGINATOR     = 

OBJECT_NAME    = TITAN 4B R/B
OBJECT_ID      = 2000-047B
CENTER_NAME    = EARTH
REF_FRAME      = TEME
TIME_SYSTEM    = UTC
MEAN_ELEMENT_THEORY = SGP/SGP4

EPOCH          = 2026-01-08T12:33:31.110336
MEAN_MOTION    = 15.09007917
ECCENTRICITY   = .0037271
INCLINATION    = 67.9876
RA_OF_ASC_NODE = 209.6222
ARG_OF_PERICENTER = 111.3507
MEAN_ANOMALY   = 249.1627

EPHEMERIS_TYPE = 0
CLASSIFICATION_TYPE = U
NORAD_CAT_ID   = 26474
ELEMENT_SET_NO = 999
REV_AT_EPOCH   = 38383
BSTAR          = .23785E-3
MEAN_MOTION_DOT = .3696E-4
MEAN_MOTION_DDOT = 0

CCSDS_OMM_VERS = 2.0
CREATION_DATE  = 
ORIGINATOR     = 

OBJECT_NAME    = ENVISAT
OBJECT_ID      = 2002-009A
CENTER_NAME    = EARTH
REF_FRAME      = TEME
TIME_SYSTEM    = UTC
MEAN_ELEMENT_THEORY = SGP/SGP4

EPOCH          = 2026-01-05T21:29:39.358752
MEAN_MOTION    = 14.39010190
ECCENTRICITY   = .00010782
INCLINATION    = 98.3632
RA_OF_ASC_NODE = 321.0279
ARG_OF_PERICENTER = 90.4272
MEAN_ANOMALY   = 337.3404

EPHEMERIS_TYPE = 0
CLASSIFICATION_TYPE = U
NORAD_CAT_ID   = 27386
ELEMENT_SET_NO = 999
REV_AT_EPOCH   = 25014
BSTAR          = .76294626E-4
MEAN_MOTION_DOT = .193E-5
MEAN_MOTION_DDOT = 0

