SL-16 R/B               
1 25400U 98043G   26008.39072169  .00000092  00000+0  57644-4 0  9998
2 25400  98.8162 321.3630 0009687 183.3486 176.7630 14.26033241430393
SL-16 R/B               
1 25407U 98045B   26008.25235505 -.00000177  00000+0 -65302-4 0  9993
2 25407  71.0124 308.6712 0005384 130.4771 229.6823 14.16180775418549
ISS (ZARYA)             
1 25544U 98067A   26008.43553690  .00009375  00000+0  17695-3 0  9995
2 25544  51.6332  10.3044 0007632 354.9386   5.1525 15.49173630546990
CZ-4B R/B               
1 25732U 99025C   26008.40709679  .00000055  00000+0  47473-4 0  9990
2 25732  98.6731  54.0857 0037566 156.9324 214.5675 14.18251140379625
OKEAN-O                 
1 25860U 99039A   26008.42402607  .00000930  00000+0  12921-3 0  9991
2 25860  97.9562  68.8903 0001521 111.7860 248.3514 14.80217337425473
SL-16 R/B               
1 25861U 99039B   26008.39354313  .00000746  00000+0  10152-3 0  9997
2 25861  98.0086  67.5416 0016167  93.0687 267.2375 14.81633729427939
DELTA 2 R/B             
1 25876U 99041E   26008.47822962  .00002846  00000+0  49530-3 0  9990
2 25876  51.7599 181.7014 0503909 170.5771 190.5060 14.11514284354523
HELIOS 1B               
1 25977U 99064A   26008.44434539  .00002201  00000+0  24977-3 0  9996
2 25977  98.1745 268.9034 0000313  95.4992 264.6259 14.87416471676302
TERRA                   
1 25994U 99068A   26008.45784256  .00000558  00000+0  12297-3 0  9999
2 25994  97.9710  64.1567 0002788  39.3727  86.0120 14.60938438386289
SL-16 R/B               
1 26070U 00006B   26008.32269367 -.00000082  00000+0 -17135-4 0  9997
2 26070  71.0013 224.7649 0018977 273.1147  86.7804 14.15815842340010
TITAN 4B R/B            
1 26474U 00047B   26008.52327674  .00003696  00000+0  23785-3 0  9997
2 26474  67.9876 209.6222 0037271 111.3507 249.1627 15.09007917383834
ENVISAT                 
1 27386U 02009A   26005.89559443  .00000193  00000+0  76295-4 0  9992
2 27386  98.3632 321.0279 0001078  90.4272 337.3404 14.39010190250147
